HST                     
1 20580U 90037B   24073.59704457  .00005525  00000+0  26804-3 0  9990
2 20580  28.4676 264.8714 0003098  71.4840 288.6088 15.16281575662506
